{
  "type": "FeatureCollection",
  "features": [
    {
      "type": "Feature",
      "properties": {
        "norad_id": 32183,
        "name": "FENGYUN 1C DEB",
        "group": "fengyun-1c-debris",
        "lat": -59.520355567457194,
        "lon": -151.62816197146043,
        "alt_km": 895.9219090421138,
        "timestamp": "2025-12-18T10:51:26.093504+00:00",
        "meta_object_name": "FENGYUN 1C DEB",
        "meta_object_id": "1999-025CUD",
        "meta_epoch": "2025-12-12T08:58:08.411808",
        "meta_mean_motion": 14.10083628,
        "meta_eccentricity": 0.00428392,
        "meta_inclination": 98.7133,
        "meta_ra_of_asc_node": 37.5876,
        "meta_arg_of_pericenter": 61.9677,
        "meta_mean_anomaly": 298.5817,
        "meta_ephemeris_type": 0,
        "meta_classification_type": "U",
        "meta_norad_cat_id": 32183,
        "meta_element_set_no": 999,
        "meta_rev_at_epoch": 72759,
        "meta_bstar": 0.00097760339,
        "meta_mean_motion_dot": 1.7e-05,
        "meta_mean_motion_ddot": 0,
        "tle_line1": "1 32183U 99025CUD 25346.37370847  .00001700  00000+0  97760-3 0  9990",
        "tle_line2": "2 32183  98.7133  37.5876 0042839  61.9677 298.5817 14.10083628727591"
      },
      "geometry": {
        "type": "Point",
        "coordinates": [
          -151.62816197146043,
          -59.520355567457194
        ]
      }
    },
    {
      "type": "Feature",
      "properties": {
        "norad_id": 32184,
        "name": "FENGYUN 1C DEB",
        "group": "fengyun-1c-debris",
        "lat": -48.630253849752805,
        "lon": 141.78206203618987,
        "alt_km": 393.55100560223127,
        "timestamp": "2025-12-18T10:51:26.093514+00:00",
        "meta_object_name": "FENGYUN 1C DEB",
        "meta_object_id": "1999-025CUE",
        "meta_epoch": "2025-12-16T03:05:33.444384",
        "meta_mean_motion": 15.44386245,
        "meta_eccentricity": 0.00703236,
        "meta_inclination": 98.1212,
        "meta_ra_of_asc_node": 129.8555,
        "meta_arg_of_pericenter": 335.9505,
        "meta_mean_anomaly": 23.8462,
        "meta_ephemeris_type": 0,
        "meta_classification_type": "U",
        "meta_norad_cat_id": 32184,
        "meta_element_set_no": 999,
        "meta_rev_at_epoch": 98456,
        "meta_bstar": 0.0012038165,
        "meta_mean_motion_dot": 0.00061287,
        "meta_mean_motion_ddot": 0,
        "tle_line1": "1 32184U 99025CUE 25350.12885931  .00061287  00000+0  12038-2 0  9994",
        "tle_line2": "2 32184  98.1212 129.8555 0070323 335.9505  23.8462 15.44386245984562"
      },
      "geometry": {
        "type": "Point",
        "coordinates": [
          141.78206203618987,
          -48.630253849752805
        ]
      }
    },
    {
      "type": "Feature",
      "properties": {
        "norad_id": 32185,
        "name": "FENGYUN 1C DEB",
        "group": "fengyun-1c-debris",
        "lat": 63.483569607384126,
        "lon": -178.73949697740795,
        "alt_km": 505.29729360628426,
        "timestamp": "2025-12-18T10:51:26.093525+00:00",
        "meta_object_name": "FENGYUN 1C DEB",
        "meta_object_id": "1999-025CUF",
        "meta_epoch": "2025-12-17T01:02:45.702528",
        "meta_mean_motion": 15.03922233,
        "meta_eccentricity": 0.01609624,
        "meta_inclination": 98.9036,
        "meta_ra_of_asc_node": 197.9523,
        "meta_arg_of_pericenter": 1.3956,
        "meta_mean_anomaly": 358.7683,
        "meta_ephemeris_type": 0,
        "meta_classification_type": "U",
        "meta_norad_cat_id": 32185,
        "meta_element_set_no": 999,
        "meta_rev_at_epoch": 95080,
        "meta_bstar": 0.0022960994,
        "meta_mean_motion_dot": 0.00042321,
        "meta_mean_motion_ddot": 0,
        "tle_line1": "1 32185U 99025CUF 25351.04358452  .00042321  00000+0  22961-2 0  9994",
        "tle_line2": "2 32185  98.9036 197.9523 0160962   1.3956 358.7683 15.03922233950802"
      },
      "geometry": {
        "type": "Point",
        "coordinates": [
          -178.73949697740795,
          63.483569607384126
        ]
      }
    },
    {
      "type": "Feature",
      "properties": {
        "norad_id": 32186,
        "name": "FENGYUN 1C DEB",
        "group": "fengyun-1c-debris",
        "lat": -76.6295896253598,
        "lon": 177.54603000990508,
        "alt_km": 925.4248097584295,
        "timestamp": "2025-12-18T10:51:26.093535+00:00",
        "meta_object_name": "FENGYUN 1C DEB",
        "meta_object_id": "1999-025CUG",
        "meta_epoch": "2025-12-17T09:16:46.398432",
        "meta_mean_motion": 13.76520616,
        "meta_eccentricity": 0.02747518,
        "meta_inclination": 99.6086,
        "meta_ra_of_asc_node": 41.9226,
        "meta_arg_of_pericenter": 188.6155,
        "meta_mean_anomaly": 190.549,
        "meta_ephemeris_type": 0,
        "meta_classification_type": "U",
        "meta_norad_cat_id": 32186,
        "meta_element_set_no": 999,
        "meta_rev_at_epoch": 62674,
        "meta_bstar": 0.00076452412,
        "meta_mean_motion_dot": 9.42e-06,
        "meta_mean_motion_ddot": 0,
        "tle_line1": "1 32186U 99025CUG 25351.38664813  .00000942  00000+0  76452-3 0  9991",
        "tle_line2": "2 32186  99.6086  41.9226 0274751 188.6155 190.5490 13.76520616626744"
      },
      "geometry": {
        "type": "Point",
        "coordinates": [
          177.54603000990508,
          -76.6295896253598
        ]
      }
    },
    {
      "type": "Feature",
      "properties": {
        "norad_id": 32187,
        "name": "FENGYUN 1C DEB",
        "group": "fengyun-1c-debris",
        "lat": -69.41553115718013,
        "lon": -135.34253299851065,
        "alt_km": 1182.2788995370747,
        "timestamp": "2025-12-18T10:51:26.093545+00:00",
        "meta_object_name": "FENGYUN 1C DEB",
        "meta_object_id": "1999-025CUH",
        "meta_epoch": "2025-12-16T04:26:51.970272",
        "meta_mean_motion": 13.50499044,
        "meta_eccentricity": 0.02940609,
        "meta_inclination": 99.507,
        "meta_ra_of_asc_node": 68.9876,
        "meta_arg_of_pericenter": 137.2902,
        "meta_mean_anomaly": 255.0581,
        "meta_ephemeris_type": 0,
        "meta_classification_type": "U",
        "meta_norad_cat_id": 32187,
        "meta_element_set_no": 999,
        "meta_rev_at_epoch": 66305,
        "meta_bstar": 0.00040888468,
        "meta_mean_motion_dot": 3.03e-06,
        "meta_mean_motion_ddot": 0,
        "tle_line1": "1 32187U 99025CUH 25350.18532373  .00000303  00000+0  40888-3 0  9999",
        "tle_line2": "2 32187  99.5070  68.9876 0294060 137.2902 255.0581 13.50499044663057"
      },
      "geometry": {
        "type": "Point",
        "coordinates": [
          -135.34253299851065,
          -69.41553115718013
        ]
      }
    },
    {
      "type": "Feature",
      "properties": {
        "norad_id": 32191,
        "name": "FENGYUN 1C DEB",
        "group": "fengyun-1c-debris",
        "lat": 80.86407910577732,
        "lon": -59.13357446245742,
        "alt_km": 784.5194137873714,
        "timestamp": "2025-12-18T10:51:26.093556+00:00",
        "meta_object_name": "FENGYUN 1C DEB",
        "meta_object_id": "1999-025CUM",
        "meta_epoch": "2025-12-12T09:31:01.273728",
        "meta_mean_motion": 14.25192776,
        "meta_eccentricity": 0.0093788,
        "meta_inclination": 98.7073,
        "meta_ra_of_asc_node": 42.503,
        "meta_arg_of_pericenter": 187.4274,
        "meta_mean_anomaly": 172.5522,
        "meta_ephemeris_type": 0,
        "meta_classification_type": "U",
        "meta_norad_cat_id": 32191,
        "meta_element_set_no": 999,
        "meta_rev_at_epoch": 64496,
        "meta_bstar": 0.002278977,
        "meta_mean_motion_dot": 5.565e-05,
        "meta_mean_motion_ddot": 0,
        "tle_line1": "1 32191U 99025CUM 25346.39654252  .00005565  00000+0  22790-2 0  9999",
        "tle_line2": "2 32191  98.7073  42.5030 0093788 187.4274 172.5522 14.25192776644961"
      },
      "geometry": {
        "type": "Point",
        "coordinates": [
          -59.13357446245742,
          80.86407910577732
        ]
      }
    },
    {
      "type": "Feature",
      "properties": {
        "norad_id": 32192,
        "name": "FENGYUN 1C DEB",
        "group": "fengyun-1c-debris",
        "lat": 70.32078841402688,
        "lon": -162.33110782515527,
        "alt_km": 910.5696475816849,
        "timestamp": "2025-12-18T10:51:26.093566+00:00",
        "meta_object_name": "FENGYUN 1C DEB",
        "meta_object_id": "1999-025CUN",
        "meta_epoch": "2025-12-17T03:14:23.853120",
        "meta_mean_motion": 13.82515507,
        "meta_eccentricity": 0.01818954,
        "meta_inclination": 98.653,
        "meta_ra_of_asc_node": 221.6578,
        "meta_arg_of_pericenter": 150.5101,
        "meta_mean_anomaly": 210.6465,
        "meta_ephemeris_type": 0,
        "meta_classification_type": "U",
        "meta_norad_cat_id": 32192,
        "meta_element_set_no": 999,
        "meta_rev_at_epoch": 92773,
        "meta_bstar": 0.00025711022,
        "meta_mean_motion_dot": 2.78e-06,
        "meta_mean_motion_ddot": 0,
        "tle_line1": "1 32192U 99025CUN 25351.13499830  .00000278  00000+0  25711-3 0  9990",
        "tle_line2": "2 32192  98.6530 221.6578 0181895 150.5101 210.6465 13.82515507927735"
      },
      "geometry": {
        "type": "Point",
        "coordinates": [
          -162.33110782515527,
          70.32078841402688
        ]
      }
    }
  ]
}